[{"OBJECT_NAME":"OBJECT J","OBJECT_ID":"2023-085J","EPOCH":"2026-03-09T22:47:59.920512","MEAN_MOTION":15.31507187,"ECCENTRICITY":0.00067028,"INCLINATION":97.4828,"RA_OF_ASC_NODE":180.1819,"ARG_OF_PERICENTER":41.7877,"MEAN_ANOMALY":318.3875,"EPHEMERIS_TYPE":0,"CLASSIFICATION_TYPE":"U","NORAD_CAT_ID":57012,"ELEMENT_SET_NO":999,"REV_AT_EPOCH":15156,"BSTAR":0.00064525349,"MEAN_MOTION_DOT":0.00019595,"MEAN_MOTION_DDOT":0},{"OBJECT_NAME":"STARLINK-36048","OBJECT_ID":"2025-270R","EPOCH":"2026-03-09T00:03:38.372544","MEAN_MOTION":15.27580914,"ECCENTRICITY":6.277e-5,"INCLINATION":42.9969,"RA_OF_ASC_NODE":59.8093,"ARG_OF_PERICENTER":273.9101,"MEAN_ANOMALY":86.1679,"EPHEMERIS_TYPE":0,"CLASSIFICATION_TYPE":"U","NORAD_CAT_ID":66603,"ELEMENT_SET_NO":999,"REV_AT_EPOCH":1750,"BSTAR":0.00094906375,"MEAN_MOTION_DOT":0.00025947,"MEAN_MOTION_DDOT":0}]
